{"type": "FeatureCollection", "features": [ {"type": "Feature", "properties": {"norad_id": 66052, "name": "HRC MONOBLOCK CAMERA", "group": "stations", "lat": -23.26008875928148, "lon": -4.221200104667183, "alt_km": 406.7105231049409, "timestamp": "2025-12-09T20:37:08.073058+00:00", "meta": {"OBJECT_NAME": "HRC MONOBLOCK CAMERA", "OBJECT_ID": "1998-067XR", "EPOCH": "2025-12-09T12:00:01.915488", "MEAN_MOTION": 15.53794743, "ECCENTRICITY": 0.00038118, "INCLINATION": 51.629, "RA_OF_ASC_NODE": 157.6571, "ARG_OF_PERICENTER": 171.0105, "MEAN_ANOMALY": 189.0954, "EPHEMERIS_TYPE": 0, "CLASSIFICATION_TYPE": "U", "NORAD_CAT_ID": 66052, "ELEMENT_SET_NO": 999, "REV_AT_EPOCH": 833, "BSTAR": 0.00068667164, "MEAN_MOTION_DOT": 0.0004469, "MEAN_MOTION_DDOT": 0}, "tle": {"line1": "1 66052U 98067XR  25343.50002217  .00044690  00000+0  68667-3 0  9991", "line2": "2 66052  51.6290 157.6571 0003811 171.0105 189.0954 15.53794743  8332"}}, "geometry": {"type": "Point", "coordinates": [-4.221200104667183, -23.26008875928148]}}, {"type": "Feature", "properties": {"norad_id": 66174, "name": "HTV-X1", "group": "stations", "lat": 23.32265577645589, "lon": -43.23074864363361, "alt_km": 415.0079375030082, "timestamp": "2025-12-09T20:37:08.073069+00:00", "meta": {"OBJECT_NAME": "HTV-X1", "OBJECT_ID": "2025-241A", "EPOCH": "2025-12-09T12:14:10.839552", "MEAN_MOTION": 15.49447168, "ECCENTRICITY": 0.00034, "INCLINATION": 51.631, "RA_OF_ASC_NODE": 158.4724, "ARG_OF_PERICENTER": 223.8185, "MEAN_ANOMALY": 136.2534, "EPHEMERIS_TYPE": 0, "CLASSIFICATION_TYPE": "U", "NORAD_CAT_ID": 66174, "ELEMENT_SET_NO": 999, "REV_AT_EPOCH": 51, "BSTAR": 0.00026025969, "MEAN_MOTION_DOT": 0.00014141, "MEAN_MOTION_DDOT": 0}, "tle": {"line1": "1 66174U 25241A   25343.50984768  .00014141  00000+0  26026-3 0  9991", "line2": "2 66174  51.6310 158.4724 0003400 223.8185 136.2534 15.49447168   518"}}, "geometry": {"type": "Point", "coordinates": [-43.23074864363361, 23.32265577645589]}}, {"type": "Feature", "properties": {"norad_id": 66515, "name": "SZ-21 MODULE", "group": "stations", "lat": 16.84479423426264, "lon": 53.65919791919277, "alt_km": 381.56044708163245, "timestamp": "2025-12-09T20:37:08.073079+00:00", "meta": {"OBJECT_NAME": "SZ-21 MODULE", "OBJECT_ID": "2025-246C", "EPOCH": "2025-12-09T11:18:10.159488", "MEAN_MOTION": 15.62240002, "ECCENTRICITY": 0.0006286, "INCLINATION": 41.4772, "RA_OF_ASC_NODE": 35.9831, "ARG_OF_PERICENTER": 242.4237, "MEAN_ANOMALY": 117.5964, "EPHEMERIS_TYPE": 0, "CLASSIFICATION_TYPE": "U", "NORAD_CAT_ID": 66515, "ELEMENT_SET_NO": 999, "REV_AT_EPOCH": 393, "BSTAR": 0.00035876146, "MEAN_MOTION_DOT": 0.00032351, "MEAN_MOTION_DDOT": 0}, "tle": {"line1": "1 66515U 25246C   25343.47095092  .00032351  00000+0  35876-3 0  9990", "line2": "2 66515  41.4772  35.9831 0006286 242.4237 117.5964 15.62240002  3935"}}, "geometry": {"type": "Point", "coordinates": [53.65919791919277, 16.84479423426264]}}, {"type": "Feature", "properties": {"norad_id": 66645, "name": "SHENZHOU-22", "group": "stations", "lat": 18.083184575598686, "lon": -167.50662479249692, "alt_km": 392.51076170769375, "timestamp": "2025-12-09T20:37:08.073089+00:00", "meta": {"OBJECT_NAME": "SHENZHOU-22", "OBJECT_ID": "2025-272A", "EPOCH": "2025-12-09T13:49:14.456064", "MEAN_MOTION": 15.58965688, "ECCENTRICITY": 0.00089597, "INCLINATION": 41.4682, "RA_OF_ASC_NODE": 35.9133, "ARG_OF_PERICENTER": 5.1145, "MEAN_ANOMALY": 354.9784, "EPHEMERIS_TYPE": 0, "CLASSIFICATION_TYPE": "U", "NORAD_CAT_ID": 66645, "ELEMENT_SET_NO": 999, "REV_AT_EPOCH": 26300, "BSTAR": 0.00041052725, "MEAN_MOTION_DOT": 0.00032682, "MEAN_MOTION_DDOT": 0}, "tle": {"line1": "1 66645U 25272A   25343.57586176  .00032682  00000+0  41053-3 0  9993", "line2": "2 66645  41.4682  35.9133 0008959   5.1145 354.9784 15.58965688263007"}}, "geometry": {"type": "Point", "coordinates": [-167.50662479249692, 18.083184575598686]}}, {"type": "Feature", "properties": {"norad_id": 66664, "name": "SOYUZ-MS 28", "group": "stations", "lat": 23.32265434712353, "lon": -43.23074721649217, "alt_km": 415.0079376573185, "timestamp": "2025-12-09T20:37:08.073099+00:00", "meta": {"OBJECT_NAME": "SOYUZ-MS 28", "OBJECT_ID": "2025-275A", "EPOCH": "2025-12-09T12:14:10.839552", "MEAN_MOTION": 15.49447168, "ECCENTRICITY": 0.00034, "INCLINATION": 51.631, "RA_OF_ASC_NODE": 158.4724, "ARG_OF_PERICENTER": 223.8185, "MEAN_ANOMALY": 136.2534, "EPHEMERIS_TYPE": 0, "CLASSIFICATION_TYPE": "U", "NORAD_CAT_ID": 66664, "ELEMENT_SET_NO": 999, "REV_AT_EPOCH": 128, "BSTAR": 0.00026025969, "MEAN_MOTION_DOT": 0.00014141, "MEAN_MOTION_DDOT": 0}, "tle": {"line1": "1 66664U 25275A   25343.50984768  .00014141  00000+0  26026-3 0  9992", "line2": "2 66664  51.6310 158.4724 0003400 223.8185 136.2534 15.49447168  1287"}}, "geometry": {"type": "Point", "coordinates": [-43.23074721649217, 23.32265434712353]}}, {"type": "Feature", "properties": {"norad_id": 66906, "name": "1998-067XS", "group": "stations", "lat": 8.328264339291048, "lon": -29.958976244719757, "alt_km": 412.7975785362032, "timestamp": "2025-12-09T20:37:08.073109+00:00", "meta": {"OBJECT_NAME": "1998-067XS", "OBJECT_ID": "1998-067XS", "EPOCH": "2025-12-09T12:09:24.113376", "MEAN_MOTION": 15.50312686, "ECCENTRICITY": 0.00039811, "INCLINATION": 51.63, "RA_OF_ASC_NODE": 158.4502, "ARG_OF_PERICENTER": 188.2752, "MEAN_ANOMALY": 171.8172, "EPHEMERIS_TYPE": 0, "CLASSIFICATION_TYPE": "U", "NORAD_CAT_ID": 66906, "ELEMENT_SET_NO": 999, "REV_AT_EPOCH": 111, "BSTAR": 0.00059211588, "MEAN_MOTION_DOT": 0.00033864, "MEAN_MOTION_DDOT": 0}, "tle": {"line1": "1 66906U 98067XS  25343.50652909  .00033864  00000+0  59212-3 0  9995", "line2": "2 66906  51.6300 158.4502 0003981 188.2752 171.8172 15.50312686  1110"}}, "geometry": {"type": "Point", "coordinates": [-29.958976244719757, 8.328264339291048]}}, {"type": "Feature", "properties": {"norad_id": 66907, "name": "1998-067XT", "group": "stations", "lat": 2.383403844134693, "lon": -25.203874708772503, "alt_km": 411.73590619884635, "timestamp": "2025-12-09T20:37:08.073122+00:00", "meta": {"OBJECT_NAME": "1998-067XT", "OBJECT_ID": "1998-067XT", "EPOCH": "2025-12-09T12:07:37.114752", "MEAN_MOTION": 15.50864429, "ECCENTRICITY": 0.00048036, "INCLINATION": 51.6307, "RA_OF_ASC_NODE": 158.4423, "ARG_OF_PERICENTER": 208.5081, "MEAN_ANOMALY": 151.5646, "EPHEMERIS_TYPE": 0, "CLASSIFICATION_TYPE": "U", "NORAD_CAT_ID": 66907, "ELEMENT_SET_NO": 999, "REV_AT_EPOCH": 111, "BSTAR": 0.0012921241, "MEAN_MOTION_DOT": 0.00076342, "MEAN_MOTION_DDOT": 0}, "tle": {"line1": "1 66907U 98067XT  25343.50529068  .00076342  00000+0  12921-2 0  9998", "line2": "2 66907  51.6307 158.4423 0004803 208.5081 151.5646 15.50864429  1113"}}, "geometry": {"type": "Point", "coordinates": [-25.203874708772503, 2.383403844134693]}}, {"type": "Feature", "properties": {"norad_id": 66908, "name": "1998-067XU", "group": "stations", "lat": 1.451229323336962, "lon": -24.4668430832691, "alt_km": 411.5347191535766, "timestamp": "2025-12-09T20:37:08.073132+00:00", "meta": {"OBJECT_NAME": "1998-067XU", "OBJECT_ID": "1998-067XU", "EPOCH": "2025-12-09T15:12:54.016992", "MEAN_MOTION": 15.50928353, "ECCENTRICITY": 0.00050029, "INCLINATION": 51.6301, "RA_OF_ASC_NODE": 157.8011, "ARG_OF_PERICENTER": 207.486, "MEAN_ANOMALY": 152.5865, "EPHEMERIS_TYPE": 0, "CLASSIFICATION_TYPE": "U", "NORAD_CAT_ID": 66908, "ELEMENT_SET_NO": 999, "REV_AT_EPOCH": 113, "BSTAR": 0.0012603324, "MEAN_MOTION_DOT": 0.00074609, "MEAN_MOTION_DDOT": 0}, "tle": {"line1": "1 66908U 98067XU  25343.63395853  .00074609  00000+0  12603-2 0  9997", "line2": "2 66908  51.6301 157.8011 0005002 207.4860 152.5865 15.50928353  1132"}}, "geometry": {"type": "Point", "coordinates": [-24.4668430832691, 1.451229323336962]}}, {"type": "Feature", "properties": {"norad_id": 66909, "name": "SILVERSAT", "group": "stations", "lat": 0.6493362324719609, "lon": -23.833500981202505, "alt_km": 411.4615264272006, "timestamp": "2025-12-09T20:37:08.073142+00:00", "meta": {"OBJECT_NAME": "SILVERSAT", "OBJECT_ID": "1998-067XV", "EPOCH": "2025-12-09T15:12:39.386016", "MEAN_MOTION": 15.5102294, "ECCENTRICITY": 0.00048745, "INCLINATION": 51.6303, "RA_OF_ASC_NODE": 157.7998, "ARG_OF_PERICENTER": 209.5362, "MEAN_ANOMALY": 150.5352, "EPHEMERIS_TYPE": 0, "CLASSIFICATION_TYPE": "U", "NORAD_CAT_ID": 66909, "ELEMENT_SET_NO": 999, "REV_AT_EPOCH": 113, "BSTAR": 0.0013732623, "MEAN_MOTION_DOT": 0.00081682, "MEAN_MOTION_DDOT": 0}, "tle": {"line1": "1 66909U 98067XV  25343.63378919  .00081682  00000+0  13733-2 0  9996", "line2": "2 66909  51.6303 157.7998 0004874 209.5362 150.5352 15.51022940  1131"}}, "geometry": {"type": "Point", "coordinates": [-23.833500981202505, 0.6493362324719609]}}, {"type": "Feature", "properties": {"norad_id": 66910, "name": "1998-067XW", "group": "stations", "lat": -4.6370149237229175, "lon": -19.649771010443178, "alt_km": 410.44143371094924, "timestamp": "2025-12-09T20:37:08.073171+00:00", "meta": {"OBJECT_NAME": "1998-067XW", "OBJECT_ID": "1998-067XW", "EPOCH": "2025-12-08T22:10:28.285536", "MEAN_MOTION": 15.51111527, "ECCENTRICITY": 0.0005924, "INCLINATION": 51.6296, "RA_OF_ASC_NODE": 161.31, "ARG_OF_PERICENTER": 189.6176, "MEAN_ANOMALY": 170.4701, "EPHEMERIS_TYPE": 0, "CLASSIFICATION_TYPE": "U", "NORAD_CAT_ID": 66910, "ELEMENT_SET_NO": 999, "REV_AT_EPOCH": 102, "BSTAR": 0.0011826614, "MEAN_MOTION_DOT": 0.00070418, "MEAN_MOTION_DDOT": 0}, "tle": {"line1": "1 66910U 98067XW  25342.92393849  .00070418  00000+0  11827-2 0  9995", "line2": "2 66910  51.6296 161.3100 0005924 189.6176 170.4701 15.51111527  1025"}}, "geometry": {"type": "Point", "coordinates": [-19.649771010443178, -4.6370149237229175]}}]}